NISAR
1 65053U 25163A   25362.11300412  .00000381  00000+0  12822-3 0  9995
2 65053  98.4062 187.2344 0001196  88.3819 271.7508 14.42504229 21728
